NORAD_CAT_ID,OBJECT_NAME,OBJECT_TYPE,EPOCH,MEAN_MOTION,ECCENTRICITY,INCLINATION,RA_OF_ASC_NODE,ARG_OF_PERICENTER,MEAN_ANOMALY,BSTAR,MEAN_MOTION_DOT,MEAN_MOTION_DDOT,TLE_LINE0,TLE_LINE1,TLE_LINE2,SEMIMAJOR_AXIS,PERIOD,APOGEE,PERIGEE,DECAYED
52134.0,STARLINK-3721,PAYLOAD,2022-07-14 14:00:01,15.08814041,0.0001646,53.2156,298.1433,48.3455,240.8609,0.00023284,3.417e-05,0.0,0 STARLINK-3721,1 52134U 22029AY  22195.58334491  .00003417  00000-0  23284-3 0  9993,2 52134  53.2156 298.1433 0001646  48.3455 240.8609 15.08814041  1300,6917.96,95.439,540.9630000000002,538.686,0.0
52134.0,STARLINK-3721,PAYLOAD,2022-07-14 22:00:00,15.08841741,0.0001588,53.2151,296.6464,47.0812,253.6875,-0.0016797,-0.00026922,0.0,0 STARLINK-3721,1 52134U 22029AY  22195.91667824 -.00026922  00000-0 -16797-2 0  9997,2 52134  53.2151 296.6464 0001588  47.0812 253.6875 15.08841741 19572,6917.875,95.437,540.839,538.6419999999998,0.0
52134.0,STARLINK-3721,PAYLOAD,2022-07-15 14:00:01,15.08840934,0.0001698,53.2149,293.6545,48.029,275.9218,0.00065302,0.0001012,0.0,0 STARLINK-3721,1 52134U 22029AY  22196.58334491  .00010120  00000-0  65302-3 0  9990,2 52134  53.2149 293.6545 0001698  48.0290 275.9218 15.08840934 19671,6917.878000000002,95.437,540.9169999999998,538.568,0.0
52134.0,STARLINK-3721,PAYLOAD,2022-07-15 22:00:00,15.08879103,0.0001676999999999,53.2146,292.1573,47.7106,287.8389,-0.0043223,-0.00068497,0.0,0 STARLINK-3721,1 52134U 22029AY  22196.91667824 -.00068497  00000-0 -43223-2 0  9995,2 52134  53.2146 292.1573 0001677  47.7106 287.8389 15.08879103  1304,6917.761,95.435,540.786,538.466,0.0
52134.0,STARLINK-3721,PAYLOAD,2022-07-16 14:00:01,15.08856457,0.000181,53.2145,289.1653,48.1996,310.5626,-0.0015657,-0.00025131,0.0,0 STARLINK-3721,1 52134U 22029AY  22197.58334491 -.00025131  00000-0 -15657-2 0  9998,2 52134  53.2145 289.1653 0001810  48.1996 310.5626 15.08856457  1304,6917.83,95.437,540.947,538.443,0.0
52134.0,STARLINK-3721,PAYLOAD,2022-07-16 22:00:00,15.08856693,0.0001714,53.2143,287.6678,46.4814,323.8936,-0.0010604,-0.00017133,0.0,0 STARLINK-3721,1 52134U 22029AY  22197.91667824 -.00017133  00000-0 -10604-2 0  9994,2 52134  53.2143 287.6678 0001714  46.4814 323.8936 15.08856693 19880,6917.829000000002,95.436,540.88,538.509,0.0
52134.0,STARLINK-3721,PAYLOAD,2022-07-17 14:00:01,15.08834754,0.0001906,53.2145,284.6758,47.6741,345.9005,-0.00042439,-7.035e-05,0.0,0 STARLINK-3721,1 52134U 22029AY  22198.58334491 -.00007035  00000-0 -42439-3 0  9991,2 52134  53.2145 284.6758 0001906  47.6741 345.9005 15.08834754  1307,6917.896,95.438,541.08,538.443,0.0
52134.0,STARLINK-3721,PAYLOAD,2022-07-17 22:00:00,15.08853445,0.0001799,53.2155,283.1811,44.8975,0.2597,-0.0045985,-0.00072762,0.0,0 STARLINK-3721,1 52134U 22029AY  22198.91667824 -.00072762  00000-0 -45985-2 0  9994,2 52134  53.2155 283.1811 0001799  44.8975   0.2597 15.08853445  1305,6917.839,95.437,540.9490000000002,538.46,0.0
52134.0,STARLINK-3721,PAYLOAD,2022-07-18 06:00:00,15.08822252,0.0001692,53.2147,281.6811,51.5256,5.1992,0.0014234,0.00022427,0.0,0 STARLINK-3721,1 52134U 22029AY  22199.25001157  .00022427  00000-0  14234-2 0  9997,2 52134  53.2147 281.6811 0001692  51.5256   5.1992 15.08822252 20089,6917.935,95.439,540.97,538.629,0.0
52134.0,STARLINK-3721,PAYLOAD,2022-07-18 14:00:01,15.08821712,0.0001885,53.2147,280.1863,45.8537,22.4568,0.0014963,0.00023594,0.0,0 STARLINK-3721,1 52134U 22029AY  22199.58334491  .00023594  00000-0  14963-2 0  9998,2 52134  53.2147 280.1863 0001885  45.8537  22.4568 15.08821712  1307,6917.936,95.439,541.105,538.497,0.0
52134.0,STARLINK-3721,PAYLOAD,2022-07-18 22:00:00,15.08852567,0.0001785,53.2148,278.6886,47.0671,32.8253,-0.0011698,-0.00018864,0.0,0 STARLINK-3721,1 52134U 22029AY  22199.91667824 -.00018864  00000-0 -11698-2 0  9992,2 52134  53.2148 278.6886 0001785  47.0671  32.8253 15.08852567  1305,6917.842,95.437,540.942,538.472,0.0
52134.0,STARLINK-3721,PAYLOAD,2022-07-19 06:00:00,15.08856797,0.0001756,53.215,277.1916,51.7534,39.7398,-0.0003978,-6.617e-05,0.0,0 STARLINK-3721,1 52134U 22029AY  22200.25001157 -.00006617  00000-0 -39780-3 0  9999,2 52134  53.2150 277.1916 0001756  51.7534  39.7398 15.08856797 20232,6917.829000000002,95.436,540.909,538.479,0.0
52134.0,STARLINK-3721,PAYLOAD,2022-07-19 14:00:01,15.08846851,0.0001895,53.215,275.6967,45.325,57.7829,-0.00082966,-0.00013471,0.0,0 STARLINK-3721,1 52134U 22029AY  22200.58334491 -.00013471  00000-0 -82966-3 0  9995,2 52134  53.2150 275.6967 0001895  45.3250  57.7829 15.08846851  1305,6917.859,95.437,541.035,538.414,0.0
52134.0,STARLINK-3721,PAYLOAD,2022-07-19 22:00:00,15.08872256,0.000182,53.216,274.2028,44.5766,70.1185,-0.0075138,-0.00118023,0.0,0 STARLINK-3721,1 52134U 22029AY  22200.91667824 -.00118023  00000-0 -75138-2 0  9992,2 52134  53.2160 274.2028 0001820  44.5766  70.1185 15.08872256  1302,6917.781999999997,95.436,540.906,538.388,0.0
52134.0,STARLINK-3721,PAYLOAD,2022-07-20 14:00:01,15.08838021,0.0001805,53.2149,271.2071,42.3543,95.5837,-0.0001927,-3.354e-05,0.0,0 STARLINK-3721,1 52134U 22029AY  22201.58334491 -.00003354  00000-0 -19270-3 0  9993,2 52134  53.2149 271.2071 0001805  42.3543  95.5837 15.08838021 20438,6917.886,95.438,541.0,538.503,0.0
52134.0,STARLINK-3721,PAYLOAD,2022-07-20 22:00:01,15.08824113,0.0001666999999999,53.2147,269.7092,46.3956,103.1936,-0.0012704,-0.00020441,0.0,0 STARLINK-3721,1 52134U 22029AY  22201.91668981 -.00020441  00000-0 -12704-2 0  9994,2 52134  53.2147 269.7092 0001667  46.3956 103.1936 15.08824113  1307,6917.929,95.439,540.947,538.641,0.0
52134.0,STARLINK-3721,PAYLOAD,2022-07-21 06:00:00,15.08825738,0.0001661,53.2149,268.2128,50.9009,110.1836,-0.00019027,-3.314e-05,0.0,0 STARLINK-3721,1 52134U 22029AY  22202.25001157 -.00003314  00000-0 -19027-3 0  9994,2 52134  53.2149 268.2128 0001661  50.9009 110.1836 15.08825738 20534,6917.924,95.438,540.938,538.64,0.0
52134.0,STARLINK-3721,PAYLOAD,2022-07-21 14:00:01,15.0879938,0.0001829,53.2154,266.7179,44.3605,128.3653,0.0024579,0.00039003,0.0,0 STARLINK-3721,1 52134U 22029AY  22202.58335648  .00039003  00000-0  24579-2 0  9994,2 52134  53.2154 266.7179 0001829  44.3605 128.3653 15.08799380  1309,6918.005,95.44,541.135,538.604,0.0
52134.0,STARLINK-3721,PAYLOAD,2022-07-21 22:00:00,15.08826409,0.0001675,53.2158,265.22,48.0125,136.2172,-0.00024802,-4.232e-05,0.0,0 STARLINK-3721,1 52134U 22029AY  22202.91667824 -.00004232  00000-0 -24802-3 0  9993,2 52134  53.2158 265.2200 0001675  48.0125 136.2172 15.08826409  1306,6917.922,95.438,540.946,538.628,0.0
52134.0,STARLINK-3721,PAYLOAD,2022-07-22 06:00:00,15.08843663,0.0001688,53.2165,263.7238,51.4564,144.3465,-0.00057121,-9.368e-05,0.0,0 STARLINK-3721,1 52134U 22029AY  22203.25001157 -.00009368  00000-0 -57121-3 0  9997,2 52134  53.2165 263.7238 0001688  51.4564 144.3465 15.08843663  1303,6917.869000000002,95.437,540.9019999999998,538.566,0.0
52134.0,STARLINK-3721,PAYLOAD,2022-07-22 12:00:00,15.088309400000002,0.0001847,53.2163,262.6029,46.5466,67.9556,0.00054909,8.459e-05,0.0,0 STARLINK-3721,1 52134U 22029AY  22203.50001157  .00008459  00000-0  54909-3 0  9994,2 52134  53.2163 262.6029 0001847  46.5466  67.9556 15.08830940 20722,6917.908,95.438,541.0509999999998,538.495,0.0
52134.0,STARLINK-3721,PAYLOAD,2022-07-22 22:00:00,15.08846542,0.0001704,53.216,260.7309,48.0392,170.9651,0.00050905,7.824e-05,0.0,0 STARLINK-3721,1 52134U 22029AY  22203.91667824  .00007824  00000-0  50905-3 0  9995,2 52134  53.2160 260.7309 0001704  48.0392 170.9651 15.08846542  1305,6917.86,95.437,540.904,538.547,0.0
52134.0,STARLINK-3721,PAYLOAD,2022-07-23 14:00:01,15.08801133,0.000183,53.2159,257.7398,41.8468,200.4233,0.0030231,0.00048102,0.0,0 STARLINK-3721,1 52134U 22029AY  22204.58335648  .00048102  00000-0  30231-2 0  9998,2 52134  53.2159 257.7398 0001830  41.8468 200.4233 15.08801133  1304,6917.999,95.44,541.13,538.5980000000002,0.0
52134.0,STARLINK-3721,PAYLOAD,2022-07-23 22:00:00,15.08826344,0.0001682,53.2159,256.2418,45.2875,208.4995,0.00086217,0.00013455,0.0,0 STARLINK-3721,1 52134U 22029AY  22204.91667824  .00013455  00000-0  86217-3 0  9998,2 52134  53.2159 256.2418 0001682  45.2875 208.4995 15.08826344  1300,6917.922,95.438,540.951,538.624,0.0
52134.0,STARLINK-3721,PAYLOAD,2022-07-24 14:00:01,15.08826361,0.0001938,53.2158,253.2509,42.6665,234.2966,0.0011036,0.00017313,0.0,0 STARLINK-3721,1 52134U 22029AY  22205.58334491  .00017313  00000-0  11036-2 0  9996,2 52134  53.2158 253.2509 0001938  42.6665 234.2966 15.08826361  1303,6917.922,95.438,541.128,538.446,0.0
52134.0,STARLINK-3721,PAYLOAD,2022-07-24 22:00:00,15.08810546,0.000185,53.216,251.7527,47.7828,240.7759,0.00062669,9.692e-05,0.0,0 STARLINK-3721,1 52134U 22029AY  22205.91667824  .00009692  00000-0  62669-3 0  9992,2 52134  53.2160 251.7527 0001850  47.7828 240.7759 15.08810546  1309,6917.97,95.439,541.115,538.556,0.0
52134.0,STARLINK-3721,PAYLOAD,2022-07-25 14:00:01,15.08802625,0.0002070999999999,53.2159,248.7619,44.3058,267.3934,0.0027307,0.00043395,0.0,0 STARLINK-3721,1 52134U 22029AY  22206.58334491  .00043395  00000-0  27307-2 0  9994,2 52134  53.2159 248.7619 0002071  44.3058 267.3934 15.08802625  1308,6917.995,95.44,541.2919999999998,538.427,0.0
52134.0,STARLINK-3721,PAYLOAD,2022-07-25 22:00:00,15.08809783,0.0001916999999999,53.2161,247.2638,48.7588,274.516,0.0016562,0.00026147,0.0,0 STARLINK-3721,1 52134U 22029AY  22206.91667824  .00026147  00000-0  16562-2 0  9997,2 52134  53.2161 247.2638 0001917  48.7588 274.5160 15.08809783  1303,6917.973000000001,95.439,541.164,538.512,0.0
52134.0,STARLINK-3721,PAYLOAD,2022-07-26 06:00:00,15.08844559,0.000199,53.2162,245.7681,49.2851,285.5548,-0.0016809,-0.00026944,0.0,0 STARLINK-3721,1 52134U 22029AY  22207.25001157 -.00026944  00000-0 -16809-2 0  9997,2 52134  53.2162 245.7681 0001990  49.2851 285.5548 15.08844559 21286,6917.866,95.437,541.1080000000002,538.355,0.0
